ORBCOMM FM33            
1 25983U 99065D   25191.33380297  .00000403  00000+0  17177-3 0  9991
2 25983  45.0278 248.9093 0009381 193.1811 166.8795 14.40033991339400
ORBCOMM FM36            
1 25984U 99065E   25191.46797454  .00000561  00000+0  22986-3 0  9992
2 25984  45.0407 340.5642 0002586  85.9365 274.1779 14.38163283337774
ORBCOMM FM35            
1 25985U 99065F   25191.46438153  .00000463  00000+0  20187-3 0  9993
2 25985  45.0409 345.7992 0004715 158.6110 201.4937 14.37130145338134
ORBCOMM FM34            
1 25986U 99065G   25191.43003523  .00000413  00000+0  18496-3 0  9995
2 25986  45.0405 346.4256 0004231 115.8021 244.3264 14.37149952338248
ORBCOMM FM38            
1 33060U 08031A   25191.34805643  .00000772  00000+0  12503-3 0  9994
2 33060  48.4391 204.8657 0004269 144.9314 215.1883 14.81382254918185
ORBCOMM FM41            
1 33061U 08031B   25191.45364350  .00000697  00000+0  11650-3 0  9990
2 33061  48.4427 212.2215 0003400 128.0645  23.3777 14.80965796917687
ORBCOMM FM29            
1 33062U 08031C   25191.43356126  .00000711  00000+0  11817-3 0  9993
2 33062  48.4380 220.0986 0005069 126.6367  10.2391 14.81070301917593
ORBCOMM FM39            
1 33063U 08031D   25191.46152812  .00000620  00000+0  10992-3 0  9995
2 33063  48.4398 244.4942 0005951  95.1338 265.0257 14.79618448917243
